      2.10          N: GNSS NAV DATA                        RINEX VERSION / TYPE
fic2rin                                 08/21/2018 00:23:45 PGM / RUN BY / DATE
                                                            END OF HEADER
 6 18  8 20  6  0  0.0 3.741416148841e-04-4.547473508865e-12 0.000000000000e+00
    7.800000000000e+01-6.921875000000e+01 3.999452307528e-09 2.900157150798e+00
   -3.434717655182e-06 9.882700396702e-04 8.650124073029e-06 5.153686876297e+03
    1.080000000000e+05-2.980232238770e-08 2.024497424672e+00-3.725290298462e-08
    9.718701179486e-01 2.205937500000e+02-1.083995914472e+00-7.743536835105e-09
    7.786038605475e-11 1.000000000000e+00 2.015000000000e+03 0.000000000000e+00
    2.400000000000e+00 0.000000000000e+00 4.656612873077e-09 7.800000000000e+01
    1.008060000000e+05 4.000000000000e+00
22 18  8 20  6  0  0.0-4.945290274918e-04-1.136868377216e-11 0.000000000000e+00
    1.700000000000e+01-7.187500000000e-01 5.287005939305e-09-2.156322650762e+00
    4.842877388000e-08 7.163545233198e-03 7.607042789459e-06 5.153734861374e+03
    1.080000000000e+05 1.322478055954e-07 3.012785869299e+00 9.126961231232e-08
    9.259847093114e-01 2.085000000000e+02-1.494388630462e+00-8.279630594134e-09
    4.143029716675e-10 1.000000000000e+00 2.015000000000e+03 0.000000000000e+00
    2.400000000000e+00 0.000000000000e+00-1.816079020500e-08 1.700000000000e+01
    1.008060000000e+05 4.000000000000e+00
25 18  8 20  6  0  0.0-6.343275308609e-04-5.798028723802e-12 0.000000000000e+00
    1.200000000000e+01 6.062500000000e+01 4.336609208609e-09 9.971858670340e-01
    3.241002559662e-06 7.448975229636e-03 5.867332220078e-06 5.153609321594e+03
    1.080000000000e+05-3.352761268616e-08-6.352355883406e-02 1.341104507446e-07
    9.736679067537e-01 2.722500000000e+02 8.679796870894e-01-8.182840848166e-09
   -7.536028191537e-11 1.000000000000e+00 2.015000000000e+03 0.000000000000e+00
    2.400000000000e+00 0.000000000000e+00 5.587935447693e-09 1.200000000000e+01
    1.008060000000e+05 4.000000000000e+00
15 18  8 20  6  0  0.0-3.480711020529e-04 9.094947017729e-13 0.000000000000e+00
    9.000000000000e+00-1.156250000000e+01 5.528087409887e-09-2.327264787783e+00
   -9.555369615555e-07 1.051974960137e-02 6.638467311859e-06 5.153794345856e+03
    1.080000000000e+05 1.136213541031e-07-2.247445483103e+00-1.508742570877e-07
    9.280802619253e-01 2.326875000000e+02 6.973644800755e-01-8.369277185417e-09
    6.964575816824e-11 1.000000000000e+00 2.015000000000e+03 0.000000000000e+00
    2.400000000000e+00 0.000000000000e+00-1.071020960808e-08 9.000000000000e+00
    1.008060000000e+05 4.000000000000e+00
19 18  8 20  6  0  0.0-4.102117381990e-04 3.296918293927e-12 0.000000000000e+00
    1.200000000000e+01-5.328125000000e+01 4.135529404256e-09 1.358767300192e+00
   -3.049150109291e-06 9.780089254491e-03 4.863366484642e-06 5.153721458435e+03
    1.080000000000e+05-6.519258022308e-08 1.077660055770e+00-1.471489667892e-07
    9.805618423709e-01 3.045625000000e+02 1.263568440149e+00-8.099265938365e-09
   -2.842975564201e-10 1.000000000000e+00 2.015000000000e+03 0.000000000000e+00
    2.400000000000e+00 0.000000000000e+00-1.536682248116e-08 1.200000000000e+01
    1.008060000000e+05 4.000000000000e+00
12 18  8 20  6  0  0.0 3.128382377326e-04-2.614797267597e-12 0.000000000000e+00
    1.400000000000e+01 6.221875000000e+01 4.022667560250e-09 1.462617366216e+00
    3.095716238022e-06 7.049508043565e-03 5.763024091721e-06 5.153788248062e+03
    1.080000000000e+05-1.993030309677e-07-2.751557264833e-03 3.352761268616e-08
    9.860902024779e-01 2.822812500000e+02 1.023765672430e+00-7.949259690002e-09
   -1.750072897561e-11 1.000000000000e+00 2.015000000000e+03 0.000000000000e+00
    2.400000000000e+00 0.000000000000e+00-1.257285475731e-08 1.400000000000e+01
    1.008060000000e+05 4.000000000000e+00
 8 18  8 20  6  0  0.0-1.122537069023e-04-1.250555214938e-12 0.000000000000e+00
    6.600000000000e+01-4.178125000000e+01 4.331251842596e-09-1.069825697894e+00
   -2.067536115646e-06 3.468879847787e-03 4.421919584274e-06 5.153614299774e+03
    1.080000000000e+05-6.891787052155e-08 9.671515049422e-01-1.303851604462e-08
    9.694826707532e-01 3.003125000000e+02-4.004945288790e-01-8.194984211129e-09
   -1.517920370333e-10 1.000000000000e+00 2.015000000000e+03 0.000000000000e+00
    2.400000000000e+00 0.000000000000e+00 5.122274160385e-09 6.600000000000e+01
    1.008060000000e+05 4.000000000000e+00
14 18  8 20  6  0  0.0-9.757932275534e-05 1.136868377216e-13 0.000000000000e+00
    6.500000000000e+01 2.593750000000e+00 4.724839665680e-09-1.712484643128e+00
    2.812594175339e-07 1.007349626161e-02 7.262453436852e-06 5.153613716125e+03
    1.080000000000e+05 1.862645149231e-07-2.084026980157e+00 1.192092895508e-07
    9.606643790474e-01 2.357812500000e+02-1.942428571844e+00-7.936759169305e-09
   -5.571660653459e-11 1.000000000000e+00 2.015000000000e+03 0.000000000000e+00
    2.400000000000e+00 0.000000000000e+00-9.778887033463e-09 6.500000000000e+01
    1.008060000000e+05 4.000000000000e+00
13 18  8 20  6  0  0.0-9.068520739675e-05 6.821210263297e-13 0.000000000000e+00
    6.500000000000e+01-6.312500000000e+00 4.600548774180e-09-2.662236206287e+00
   -4.488974809647e-07 3.321837983094e-03 7.299706339836e-06 5.153659843445e+03
    1.080000000000e+05 3.352761268616e-08-2.041536173445e+00-2.048909664154e-08
    9.680852211838e-01 2.410312500000e+02 1.491930755464e+00-7.919972755798e-09
   -1.282196265764e-10 1.000000000000e+00 2.015000000000e+03 0.000000000000e+00
    2.400000000000e+00 0.000000000000e+00-1.117587089539e-08 6.500000000000e+01
    1.008060000000e+05 4.000000000000e+00
11 18  8 20  6  0  0.0-7.236693054438e-04 2.387423592154e-12 0.000000000000e+00
    7.200000000000e+01-9.112500000000e+01 5.473442276555e-09 2.024556024782e+00
   -4.727393388748e-06 1.704641385004e-02 5.962327122688e-06 5.153654937744e+03
    1.080000000000e+05 3.315508365631e-07 1.600128843698e+00 7.450580596924e-09
    9.061274352734e-01 2.303437500000e+02 1.801055158868e+00-8.390706649469e-09
   -1.285767843106e-10 1.000000000000e+00 2.015000000000e+03 0.000000000000e+00
    2.400000000000e+00 0.000000000000e+00-1.210719347000e-08 7.200000000000e+01
    1.008060000000e+05 4.000000000000e+00
17 18  8 20  6  0  0.0-6.530852988362e-05 4.206412995700e-12 0.000000000000e+00
    1.030000000000e+02-4.553125000000e+01 4.124100356762e-09-1.442109190185e+00
   -2.263113856316e-06 1.247210090514e-02 4.116445779800e-06 5.153600671768e+03
    1.080000000000e+05 1.695007085800e-07 1.030836363661e+00 3.445893526077e-07
    9.829944805686e-01 3.135312500000e+02-1.777007888494e+00-8.068550373224e-09
   -2.507247294057e-10 1.000000000000e+00 2.015000000000e+03 0.000000000000e+00
    3.400000000000e+00 0.000000000000e+00-1.117587089539e-08 1.030000000000e+02
    1.008060000000e+05 4.000000000000e+00
10 18  8 20  6  0  0.0 1.860973425210e-04-1.477928890381e-12 0.000000000000e+00
    5.500000000000e+01-6.281250000000e+00 4.566618789431e-09 6.621919942002e-01
   -3.054738044739e-07 3.712272038683e-03 7.808208465576e-06 5.153663208008e+03
    1.080000000000e+05 3.725290298462e-08 3.072062875384e+00 1.192092895508e-07
    9.618964471908e-01 2.314062500000e+02-2.783526602336e+00-8.023905656449e-09
    3.596578383355e-10 1.000000000000e+00 2.015000000000e+03 0.000000000000e+00
    2.400000000000e+00 0.000000000000e+00 1.862645149231e-09 5.500000000000e+01
    1.008060000000e+05 4.000000000000e+00
 9 18  8 20  6  0  0.0 5.103643052280e-04-1.364242052659e-12 0.000000000000e+00
    5.500000000000e+01-1.656250000000e+00 5.030923843886e-09-1.075849668314e+00
   -8.754432201385e-08 9.406689787284e-04 7.189810276031e-06 5.153555751801e+03
    1.080000000000e+05 1.676380634308e-08-2.174556815728e+00 0.000000000000e+00
    9.524974677085e-01 2.417812500000e+02 1.778453163781e+00-8.178554955356e-09
   -8.714648714384e-11 1.000000000000e+00 2.015000000000e+03 0.000000000000e+00
    2.400000000000e+00 0.000000000000e+00 9.313225746155e-10 5.500000000000e+01
    1.008060000000e+05 4.000000000000e+00
21 18  8 20  6  0  0.0-3.499151207507e-04 5.798028723802e-12 0.000000000000e+00
    8.500000000000e+01-6.328125000000e+01 4.839487298357e-09 9.014832994265e-01
   -3.581866621971e-06 2.434469840955e-02 8.571892976761e-06 5.153648277283e+03
    1.080000000000e+05-3.334134817123e-07 1.976231715195e+00-3.334134817123e-07
    9.448266670003e-01 2.153437500000e+02-1.535381097460e+00-8.567856885630e-09
   -3.607293115380e-11 1.000000000000e+00 2.015000000000e+03 0.000000000000e+00
    2.400000000000e+00 0.000000000000e+00-1.024454832077e-08 8.500000000000e+01
    1.008060000000e+05 4.000000000000e+00
32 18  8 20  6  0  0.0-4.469151608646e-04 9.890754881781e-12 0.000000000000e+00
    5.900000000000e+01-3.281250000000e+00 4.872345809903e-09-7.047074349904e-01
   -6.891787052155e-08 2.295332844369e-03 7.215887308121e-06 5.153692853928e+03
    1.080000000000e+05 9.313225746155e-09-2.169178335967e+00 5.587935447693e-08
    9.568444132105e-01 2.385312500000e+02-2.526911327588e+00-8.114623720935e-09
   -6.143113028173e-11 1.000000000000e+00 2.015000000000e+03 0.000000000000e+00
    2.400000000000e+00 0.000000000000e+00 4.656612873077e-10 5.900000000000e+01
    1.008060000000e+05 4.000000000000e+00
16 18  8 20  6  0  0.0 1.280475407839e-05-1.705302565824e-12 0.000000000000e+00
    7.300000000000e+01 5.746875000000e+01 4.069455223430e-09-4.513575747976e-01
    2.998858690262e-06 9.982565417886e-03 5.051493644714e-06 5.153684238434e+03
    1.080000000000e+05 1.136213541031e-07 1.615049709875e-02 9.126961231232e-08
    9.865008830815e-01 2.951250000000e+02 5.226323743533e-01-8.091051310478e-09
   -4.714482091388e-11 1.000000000000e+00 2.015000000000e+03 0.000000000000e+00
    2.400000000000e+00 0.000000000000e+00-1.071020960808e-08 7.300000000000e+01
    1.008060000000e+05 4.000000000000e+00
